{"type": "FeatureCollection", "features": [{"type": "Feature", "properties": {"norad_id": 24946, "name": "IRIDIUM 33", "group": "iridium-33-debris", "lat": -15.454079957663955, "lon": -115.28668213638566, "alt_km": 774.7100434183867, "timestamp": "2025-12-23T11:34:48.545588+00:00", "meta": {"OBJECT_NAME": "IRIDIUM 33", "OBJECT_ID": "1997-051C", "EPOCH": "2025-12-22T04:33:00.643392", "MEAN_MOTION": 14.35043647, "ECCENTRICITY": 0.00081627, "INCLINATION": 86.3861, "RA_OF_ASC_NODE": 64.2549, "ARG_OF_PERICENTER": 169.1562, "MEAN_ANOMALY": 190.9812, "EPHEMERIS_TYPE": 0, "CLASSIFICATION_TYPE": "U", "NORAD_CAT_ID": 24946, "ELEMENT_SET_NO": 999, "REV_AT_EPOCH": 47970, "BSTAR": 0.00010632795, "MEAN_MOTION_DOT": 3.23e-06, "MEAN_MOTION_DDOT": 0}, "tle": {"line1": "1 24946U 97051C   25356.18959078  .00000323  00000+0  10633-3 0  9998", "line2": "2 24946  86.3861  64.2549 0008162 169.1562 190.9812 14.35043647479700"}}, "geometry": {"type": "Point", "coordinates": [-115.28668213638566, -15.454079957663955]}}, {"type": "Feature", "properties": {"norad_id": 33773, "name": "IRIDIUM 33 DEB", "group": "iridium-33-debris", "lat": 69.63568357004685, "lon": -133.72825722101751, "alt_km": 731.6468227928353, "timestamp": "2025-12-23T11:34:48.545628+00:00", "meta": {"OBJECT_NAME": "IRIDIUM 33 DEB", "OBJECT_ID": "1997-051L", "EPOCH": "2025-12-23T04:25:01.162272", "MEAN_MOTION": 14.43278196, "ECCENTRICITY": 0.0013213, "INCLINATION": 86.3999, "RA_OF_ASC_NODE": 56.1634, "ARG_OF_PERICENTER": 116.3011, "MEAN_ANOMALY": 243.9549, "EPHEMERIS_TYPE": 0, "CLASSIFICATION_TYPE": "U", "NORAD_CAT_ID": 33773, "ELEMENT_SET_NO": 999, "REV_AT_EPOCH": 88498, "BSTAR": 0.00028262, "MEAN_MOTION_DOT": 9.72e-06, "MEAN_MOTION_DDOT": 0}, "tle": {"line1": "1 33773U 97051L   25357.18404123  .00000972  00000+0  28262-3 0  9990", "line2": "2 33773  86.3999  56.1634 0013213 116.3011 243.9549 14.43278196884985"}}, "geometry": {"type": "Point", "coordinates": [-133.72825722101751, 69.63568357004685]}}, {"type": "Feature", "properties": {"norad_id": 33775, "name": "IRIDIUM 33 DEB", "group": "iridium-33-debris", "lat": 55.27974129345075, "lon": -140.30036860149633, "alt_km": 737.5803198268231, "timestamp": "2025-12-23T11:34:48.545642+00:00", "meta": {"OBJECT_NAME": "IRIDIUM 33 DEB", "OBJECT_ID": "1997-051N", "EPOCH": "2025-12-23T02:48:33.736896", "MEAN_MOTION": 14.41489583, "ECCENTRICITY": 0.0015188, "INCLINATION": 86.3625, "RA_OF_ASC_NODE": 45.1228, "ARG_OF_PERICENTER": 123.7132, "MEAN_ANOMALY": 265.5288, "EPHEMERIS_TYPE": 0, "CLASSIFICATION_TYPE": "U", "NORAD_CAT_ID": 33775, "ELEMENT_SET_NO": 999, "REV_AT_EPOCH": 88290, "BSTAR": 0.0002952, "MEAN_MOTION_DOT": 9.79e-06, "MEAN_MOTION_DDOT": 0}, "tle": {"line1": "1 33775U 97051N   25357.11705714  .00000979  00000+0  29520-3 0  9990", "line2": "2 33775  86.3625  45.1228 0015188 123.7132 265.5288 14.41489583882901"}}, "geometry": {"type": "Point", "coordinates": [-140.30036860149633, 55.27974129345075]}}, {"type": "Feature", "properties": {"norad_id": 33776, "name": "IRIDIUM 33 DEB", "group": "iridium-33-debris", "lat": -49.34023758351605, "lon": -99.53598316939748, "alt_km": 768.0383330608429, "timestamp": "2025-12-23T11:34:48.545654+00:00", "meta": {"OBJECT_NAME": "IRIDIUM 33 DEB", "OBJECT_ID": "1997-051P", "EPOCH": "2025-12-23T04:08:46.502016", "MEAN_MOTION": 14.38252693, "ECCENTRICITY": 0.0015539, "INCLINATION": 86.4032, "RA_OF_ASC_NODE": 76.3945, "ARG_OF_PERICENTER": 157.0758, "MEAN_ANOMALY": 269.3849, "EPHEMERIS_TYPE": 0, "CLASSIFICATION_TYPE": "U", "NORAD_CAT_ID": 33776, "ELEMENT_SET_NO": 999, "REV_AT_EPOCH": 88232, "BSTAR": 0.000262, "MEAN_MOTION_DOT": 8.17e-06, "MEAN_MOTION_DDOT": 0}, "tle": {"line1": "1 33776U 97051P   25357.17276044  .00000817  00000+0  26200-3 0  9999", "line2": "2 33776  86.4032  76.3945 0015539 157.0758 269.3849 14.38252693882328"}}, "geometry": {"type": "Point", "coordinates": [-99.53598316939748, -49.34023758351605]}}, {"type": "Feature", "properties": {"norad_id": 33777, "name": "IRIDIUM 33 DEB", "group": "iridium-33-debris", "lat": -30.885919004479756, "lon": 28.357815135231245, "alt_km": 715.7696525047122, "timestamp": "2025-12-23T11:34:48.545665+00:00", "meta": {"OBJECT_NAME": "IRIDIUM 33 DEB", "OBJECT_ID": "1997-051Q", "EPOCH": "2025-12-23T01:49:24.756672", "MEAN_MOTION": 14.55681547, "ECCENTRICITY": 0.0006089, "INCLINATION": 86.3772, "RA_OF_ASC_NODE": 30.7065, "ARG_OF_PERICENTER": 204.7335, "MEAN_ANOMALY": 155.3581, "EPHEMERIS_TYPE": 0, "CLASSIFICATION_TYPE": "U", "NORAD_CAT_ID": 33777, "ELEMENT_SET_NO": 999, "REV_AT_EPOCH": 88684, "BSTAR": 0.00082504, "MEAN_MOTION_DOT": 3.625e-05, "MEAN_MOTION_DDOT": 0}, "tle": {"line1": "1 33777U 97051Q   25357.07598098  .00003625  00000+0  82504-3 0  9994", "line2": "2 33777  86.3772  30.7065 0006089 204.7335 155.3581 14.55681547886848"}}, "geometry": {"type": "Point", "coordinates": [28.357815135231245, -30.885919004479756]}}, {"type": "Feature", "properties": {"norad_id": 33850, "name": "IRIDIUM 33 DEB", "group": "iridium-33-debris", "lat": 48.18121201137372, "lon": -158.54179662915053, "alt_km": 737.6923990954383, "timestamp": "2025-12-23T11:34:48.545688+00:00", "meta": {"OBJECT_NAME": "IRIDIUM 33 DEB", "OBJECT_ID": "1997-051T", "EPOCH": "2025-12-23T01:18:39.352896", "MEAN_MOTION": 14.42170528, "ECCENTRICITY": 0.0013217, "INCLINATION": 86.3408, "RA_OF_ASC_NODE": 25.7438, "ARG_OF_PERICENTER": 130.2075, "MEAN_ANOMALY": 301.3167, "EPHEMERIS_TYPE": 0, "CLASSIFICATION_TYPE": "U", "NORAD_CAT_ID": 33850, "ELEMENT_SET_NO": 999, "REV_AT_EPOCH": 88301, "BSTAR": 0.00036952, "MEAN_MOTION_DOT": 1.237e-05, "MEAN_MOTION_DDOT": 0}, "tle": {"line1": "1 33850U 97051T   25357.05462214  .00001237  00000+0  36952-3 0  9997", "line2": "2 33850  86.3408  25.7438 0013217 130.2075 301.3167 14.42170528883016"}}, "geometry": {"type": "Point", "coordinates": [-158.54179662915053, 48.18121201137372]}}, {"type": "Feature", "properties": {"norad_id": 33853, "name": "IRIDIUM 33 DEB", "group": "iridium-33-debris", "lat": -65.7868505682043, "lon": -23.851429162053382, "alt_km": 904.3598369058764, "timestamp": "2025-12-23T11:34:48.545700+00:00", "meta": {"OBJECT_NAME": "IRIDIUM 33 DEB", "OBJECT_ID": "1997-051W", "EPOCH": "2025-12-23T00:09:43.235424", "MEAN_MOTION": 13.99112351, "ECCENTRICITY": 0.0207495, "INCLINATION": 86.0001, "RA_OF_ASC_NODE": 345.3082, "ARG_OF_PERICENTER": 204.1504, "MEAN_ANOMALY": 212.5923, "EPHEMERIS_TYPE": 0, "CLASSIFICATION_TYPE": "U", "NORAD_CAT_ID": 33853, "ELEMENT_SET_NO": 999, "REV_AT_EPOCH": 85489, "BSTAR": 0.0012076, "MEAN_MOTION_DOT": 2.12e-05, "MEAN_MOTION_DDOT": 0}, "tle": {"line1": "1 33853U 97051W   25357.00675041  .00002120  00000+0  12076-2 0  9991", "line2": "2 33853  86.0001 345.3082 0207495 204.1504 212.5923 13.99112351854890"}}, "geometry": {"type": "Point", "coordinates": [-23.851429162053382, -65.7868505682043]}}, {"type": "Feature", "properties": {"norad_id": 33860, "name": "IRIDIUM 33 DEB", "group": "iridium-33-debris", "lat": -38.61066510159415, "lon": 19.58576180272841, "alt_km": 671.2872404622103, "timestamp": "2025-12-23T11:34:48.545710+00:00", "meta": {"OBJECT_NAME": "IRIDIUM 33 DEB", "OBJECT_ID": "1997-051AD", "EPOCH": "2025-12-23T00:24:44.686368", "MEAN_MOTION": 14.67484172, "ECCENTRICITY": 0.0006204, "INCLINATION": 86.3821, "RA_OF_ASC_NODE": 22.688, "ARG_OF_PERICENTER": 317.9122, "MEAN_ANOMALY": 66.8046, "EPHEMERIS_TYPE": 0, "CLASSIFICATION_TYPE": "U", "NORAD_CAT_ID": 33860, "ELEMENT_SET_NO": 999, "REV_AT_EPOCH": 88873, "BSTAR": 0.001208, "MEAN_MOTION_DOT": 6.866e-05, "MEAN_MOTION_DDOT": 0}, "tle": {"line1": "1 33860U 97051AD  25357.01718387  .00006866  00000+0  12080-2 0  9997", "line2": "2 33860  86.3821  22.6880 0006204 317.9122  66.8046 14.67484172888731"}}, "geometry": {"type": "Point", "coordinates": [19.58576180272841, -38.61066510159415]}}, {"type": "Feature", "properties": {"norad_id": 33862, "name": "IRIDIUM 33 DEB", "group": "iridium-33-debris", "lat": 78.66247163136663, "lon": 51.05237223146209, "alt_km": 629.3661832958232, "timestamp": "2025-12-23T11:34:48.545720+00:00", "meta": {"OBJECT_NAME": "IRIDIUM 33 DEB", "OBJECT_ID": "1997-051AF", "EPOCH": "2025-12-23T01:32:54.489120", "MEAN_MOTION": 14.6963106, "ECCENTRICITY": 0.0052374, "INCLINATION": 86.4076, "RA_OF_ASC_NODE": 32.9766, "ARG_OF_PERICENTER": 34.4882, "MEAN_ANOMALY": 354.3477, "EPHEMERIS_TYPE": 0, "CLASSIFICATION_TYPE": "U", "NORAD_CAT_ID": 33862, "ELEMENT_SET_NO": 999, "REV_AT_EPOCH": 88975, "BSTAR": 0.0015855, "MEAN_MOTION_DOT": 9.654e-05, "MEAN_MOTION_DDOT": 0}, "tle": {"line1": "1 33862U 97051AF  25357.06451955  .00009654  00000+0  15855-2 0  9990", "line2": "2 33862  86.4076  32.9766 0052374  34.4882 354.3477 14.69631060889754"}}, "geometry": {"type": "Point", "coordinates": [51.05237223146209, 78.66247163136663]}}, {"type": "Feature", "properties": {"norad_id": 33866, "name": "IRIDIUM 33 DEB", "group": "iridium-33-debris", "lat": -55.81024788151289, "lon": -86.04329221953242, "alt_km": 840.1447736915779, "timestamp": "2025-12-23T11:34:48.545738+00:00", "meta": {"OBJECT_NAME": "IRIDIUM 33 DEB", "OBJECT_ID": "1997-051AK", "EPOCH": "2025-12-22T05:58:49.941696", "MEAN_MOTION": 14.25302348, "ECCENTRICITY": 0.01150469, "INCLINATION": 86.3001, "RA_OF_ASC_NODE": 89.0128, "ARG_OF_PERICENTER": 131.2544, "MEAN_ANOMALY": 259.1044, "EPHEMERIS_TYPE": 0, "CLASSIFICATION_TYPE": "U", "NORAD_CAT_ID": 33866, "ELEMENT_SET_NO": 999, "REV_AT_EPOCH": 86946, "BSTAR": 0.00050535562, "MEAN_MOTION_DOT": 1.294e-05, "MEAN_MOTION_DDOT": 0}, "tle": {"line1": "1 33866U 97051AK  25356.24918914  .00001294  00000+0  50536-3 0  9994", "line2": "2 33866  86.3001  89.0128 0115046 131.2544 259.1044 14.25302348869461"}}, "geometry": {"type": "Point", "coordinates": [-86.04329221953242, -55.81024788151289]}}]}